ONEWEB-0186             
1 48229U 21031V   25271.27194851  .00000197  00000+0  49680-3 0  9992
2 48229  87.9080 341.8438 0001898 101.1276 259.0067 13.14505584213971
ONEWEB-0181             
1 48230U 21031W   25271.17364130  .00000140  00000+0  34350-3 0  9998
2 48230  87.9058 341.9307 0001899 103.0115 257.1227 13.14504126213819
ONEWEB-0188             
1 48231U 21031X   25271.21169244  .00000013  00000+0 -62709-6 0  9995
2 48231  87.9066 341.9180 0001847  97.8672 262.2668 13.14501384213728
ONEWEB-0220             
1 48232U 21031Y   25270.64241164  .00000153  00000+0  37772-3 0  9997
2 48232  87.9075 341.9698 0002053  99.4365 260.6997 13.14503178213911
ONEWEB-0165             
1 48233U 21031Z   25271.12764892  .00000289  00000+0  74464-3 0  9999
2 48233  87.9059 341.9117 0002066 103.7916 256.3444 13.14504375213936
ONEWEB-0199             
1 48234U 21031AA  25270.73120521  .00000292  00000+0  75289-3 0  9991
2 48234  87.9066 341.9577 0001651  96.8808 263.2509 13.14501440213788
ONEWEB-0203             
1 48235U 21031AB  25270.64557097  .00000256  00000+0  65573-3 0  9999
2 48235  87.9068 341.9765 0001637 105.9105 254.2206 13.14503733213787
ONEWEB-0197             
1 48236U 21031AC  25271.22901225 -.00000133  00000+0 -39262-3 0  9993
2 48236  87.9067 341.8584 0002015  91.7057 268.4304 13.14504707213771
ONEWEB-0194             
1 48237U 21031AD  25270.75181717 -.00000165  00000+0 -47949-3 0  9993
2 48237  87.9073 341.9684 0001564  98.0404 262.0903 13.14500109213884
ONEWEB-0193             
1 48238U 21031AE  25271.14826242 -.00000143  00000+0 -41971-3 0  9992
2 48238  87.9059 341.8895 0001392  96.0277 264.1011 13.14504661213887
ONEWEB-0191             
1 48239U 21031AF  25271.23548486 -.00000072  00000+0 -22961-3 0  9993
2 48239  87.9081 341.8525 0001810  98.5794 261.5541 13.14502270213758
ONEWEB-0195             
1 48240U 21031AG  25271.21249706  .00000060  00000+0  12733-3 0  9997
2 48240  87.9075 341.8530 0002051 109.8835 250.2516 13.14502164213736
ONEWEB-0201             
1 48241U 21031AH  25271.27685267  .00000194  00000+0  48939-3 0  9995
2 48241  87.9076 341.8899 0002114  97.7418 262.3952 13.14501642213972
ONEWEB-0207             
1 48242U 21031AJ  25271.10465263  .00000254  00000+0  64993-3 0  9995
2 48242  87.9067 341.8809 0001988  96.0353 264.1003 13.14503593213864
ONEWEB-0208             
1 48243U 21031AK  25271.23865977 -.00000379  00000+0 -10567-2 0  9993
2 48243  87.9070 341.8696 0001956  98.9899 261.1452 13.14502827213891
ONEWEB-0200             
1 48244U 21031AL  25270.74547061 -.00000106  00000+0 -31913-3 0  9997
2 48244  87.9069 341.9574 0001890 102.3764 257.7578 13.14503705213755
