[{"OBJECT_NAME":"ONEWEB-0186","OBJECT_ID":"2021-031V","EPOCH":"2025-09-28T06:31:36.351264","MEAN_MOTION":13.14505584,"ECCENTRICITY":0.0001898,"INCLINATION":87.908,"RA_OF_ASC_NODE":341.8438,"ARG_OF_PERICENTER":101.1276,"MEAN_ANOMALY":259.0067,"EPHEMERIS_TYPE":0,"CLASSIFICATION_TYPE":"U","NORAD_CAT_ID":48229,"ELEMENT_SET_NO":999,"REV_AT_EPOCH":21397,"BSTAR":0.00049679929,"MEAN_MOTION_DOT":1.97e-6,"MEAN_MOTION_DDOT":0},{"OBJECT_NAME":"ONEWEB-0181","OBJECT_ID":"2021-031W","EPOCH":"2025-09-28T04:10:02.608320","MEAN_MOTION":13.14504126,"ECCENTRICITY":0.00018994,"INCLINATION":87.9058,"RA_OF_ASC_NODE":341.9307,"ARG_OF_PERICENTER":103.0115,"MEAN_ANOMALY":257.1227,"EPHEMERIS_TYPE":0,"CLASSIFICATION_TYPE":"U","NORAD_CAT_ID":48230,"ELEMENT_SET_NO":999,"REV_AT_EPOCH":21381,"BSTAR":0.00034349849,"MEAN_MOTION_DOT":1.4e-6,"MEAN_MOTION_DDOT":0},{"OBJECT_NAME":"ONEWEB-0188","OBJECT_ID":"2021-031X","EPOCH":"2025-09-28T05:04:50.226816","MEAN_MOTION":13.14501384,"ECCENTRICITY":0.00018477,"INCLINATION":87.9066,"RA_OF_ASC_NODE":341.918,"ARG_OF_PERICENTER":97.8672,"MEAN_ANOMALY":262.2668,"EPHEMERIS_TYPE":0,"CLASSIFICATION_TYPE":"U","NORAD_CAT_ID":48231,"ELEMENT_SET_NO":999,"REV_AT_EPOCH":21372,"BSTAR":-6.27092e-7,"MEAN_MOTION_DOT":1.3e-7,"MEAN_MOTION_DDOT":0},{"OBJECT_NAME":"ONEWEB-0220","OBJECT_ID":"2021-031Y","EPOCH":"2025-09-27T15:25:04.365696","MEAN_MOTION":13.14503178,"ECCENTRICITY":0.00020534,"INCLINATION":87.9075,"RA_OF_ASC_NODE":341.9698,"ARG_OF_PERICENTER":99.4365,"MEAN_ANOMALY":260.6997,"EPHEMERIS_TYPE":0,"CLASSIFICATION_TYPE":"U","NORAD_CAT_ID":48232,"ELEMENT_SET_NO":999,"REV_AT_EPOCH":21391,"BSTAR":0.00037771811,"MEAN_MOTION_DOT":1.53e-6,"MEAN_MOTION_DDOT":0},{"OBJECT_NAME":"ONEWEB-0165","OBJECT_ID":"2021-031Z","EPOCH":"2025-09-28T03:03:48.866688","MEAN_MOTION":13.14504375,"ECCENTRICITY":0.00020664,"INCLINATION":87.9059,"RA_OF_ASC_NODE":341.9117,"ARG_OF_PERICENTER":103.7916,"MEAN_ANOMALY":256.3444,"EPHEMERIS_TYPE":0,"CLASSIFICATION_TYPE":"U","NORAD_CAT_ID":48233,"ELEMENT_SET_NO":999,"REV_AT_EPOCH":21393,"BSTAR":0.00074464191,"MEAN_MOTION_DOT":2.89e-6,"MEAN_MOTION_DDOT":0},{"OBJECT_NAME":"ONEWEB-0199","OBJECT_ID":"2021-031AA","EPOCH":"2025-09-27T17:32:56.130144","MEAN_MOTION":13.1450144,"ECCENTRICITY":0.00016512,"INCLINATION":87.9066,"RA_OF_ASC_NODE":341.9577,"ARG_OF_PERICENTER":96.8808,"MEAN_ANOMALY":263.2509,"EPHEMERIS_TYPE":0,"CLASSIFICATION_TYPE":"U","NORAD_CAT_ID":48234,"ELEMENT_SET_NO":999,"REV_AT_EPOCH":21378,"BSTAR":0.00075288538,"MEAN_MOTION_DOT":2.92e-6,"MEAN_MOTION_DDOT":0},{"OBJECT_NAME":"ONEWEB-0203","OBJECT_ID":"2021-031AB","EPOCH":"2025-09-27T15:29:37.331808","MEAN_MOTION":13.14503733,"ECCENTRICITY":0.00016379,"INCLINATION":87.9068,"RA_OF_ASC_NODE":341.9765,"ARG_OF_PERICENTER":105.9105,"MEAN_ANOMALY":254.2206,"EPHEMERIS_TYPE":0,"CLASSIFICATION_TYPE":"U","NORAD_CAT_ID":48235,"ELEMENT_SET_NO":999,"REV_AT_EPOCH":21378,"BSTAR":0.00065572892,"MEAN_MOTION_DOT":2.56e-6,"MEAN_MOTION_DDOT":0},{"OBJECT_NAME":"ONEWEB-0197","OBJECT_ID":"2021-031AC","EPOCH":"2025-09-28T05:29:46.658400","MEAN_MOTION":13.14504707,"ECCENTRICITY":0.0002015,"INCLINATION":87.9067,"RA_OF_ASC_NODE":341.8584,"ARG_OF_PERICENTER":91.7057,"MEAN_ANOMALY":268.4304,"EPHEMERIS_TYPE":0,"CLASSIFICATION_TYPE":"U","NORAD_CAT_ID":48236,"ELEMENT_SET_NO":999,"REV_AT_EPOCH":21377,"BSTAR":-0.00039261529,"MEAN_MOTION_DOT":-1.33e-6,"MEAN_MOTION_DDOT":0},{"OBJECT_NAME":"ONEWEB-0194","OBJECT_ID":"2021-031AD","EPOCH":"2025-09-27T18:02:37.003488","MEAN_MOTION":13.14500109,"ECCENTRICITY":0.00015648,"INCLINATION":87.9073,"RA_OF_ASC_NODE":341.9684,"ARG_OF_PERICENTER":98.0404,"MEAN_ANOMALY":262.0903,"EPHEMERIS_TYPE":0,"CLASSIFICATION_TYPE":"U","NORAD_CAT_ID":48237,"ELEMENT_SET_NO":999,"REV_AT_EPOCH":21388,"BSTAR":-0.00047949211,"MEAN_MOTION_DOT":-1.65e-6,"MEAN_MOTION_DDOT":0},{"OBJECT_NAME":"ONEWEB-0193","OBJECT_ID":"2021-031AE","EPOCH":"2025-09-28T03:33:29.873088","MEAN_MOTION":13.14504661,"ECCENTRICITY":0.00013926,"INCLINATION":87.9059,"RA_OF_ASC_NODE":341.8895,"ARG_OF_PERICENTER":96.0277,"MEAN_ANOMALY":264.1011,"EPHEMERIS_TYPE":0,"CLASSIFICATION_TYPE":"U","NORAD_CAT_ID":48238,"ELEMENT_SET_NO":999,"REV_AT_EPOCH":21388,"BSTAR":-0.00041971235,"MEAN_MOTION_DOT":-1.43e-6,"MEAN_MOTION_DDOT":0},{"OBJECT_NAME":"ONEWEB-0191","OBJECT_ID":"2021-031AF","EPOCH":"2025-09-28T05:39:05.891904","MEAN_MOTION":13.1450227,"ECCENTRICITY":0.00018104,"INCLINATION":87.9081,"RA_OF_ASC_NODE":341.8525,"ARG_OF_PERICENTER":98.5794,"MEAN_ANOMALY":261.5541,"EPHEMERIS_TYPE":0,"CLASSIFICATION_TYPE":"U","NORAD_CAT_ID":48239,"ELEMENT_SET_NO":999,"REV_AT_EPOCH":21375,"BSTAR":-0.00022960514,"MEAN_MOTION_DOT":-7.2e-7,"MEAN_MOTION_DDOT":0},{"OBJECT_NAME":"ONEWEB-0195","OBJECT_ID":"2021-031AG","EPOCH":"2025-09-28T05:05:59.745984","MEAN_MOTION":13.14502164,"ECCENTRICITY":0.00020517,"INCLINATION":87.9075,"RA_OF_ASC_NODE":341.853,"ARG_OF_PERICENTER":109.8835,"MEAN_ANOMALY":250.2516,"EPHEMERIS_TYPE":0,"CLASSIFICATION_TYPE":"U","NORAD_CAT_ID":48240,"ELEMENT_SET_NO":999,"REV_AT_EPOCH":21373,"BSTAR":0.00012733026,"MEAN_MOTION_DOT":6.0e-7,"MEAN_MOTION_DDOT":0},{"OBJECT_NAME":"ONEWEB-0201","OBJECT_ID":"2021-031AH","EPOCH":"2025-09-28T06:38:40.070688","MEAN_MOTION":13.14501642,"ECCENTRICITY":0.00021142,"INCLINATION":87.9076,"RA_OF_ASC_NODE":341.8899,"ARG_OF_PERICENTER":97.7418,"MEAN_ANOMALY":262.3952,"EPHEMERIS_TYPE":0,"CLASSIFICATION_TYPE":"U","NORAD_CAT_ID":48241,"ELEMENT_SET_NO":999,"REV_AT_EPOCH":21397,"BSTAR":0.00048939409,"MEAN_MOTION_DOT":1.94e-6,"MEAN_MOTION_DDOT":0},{"OBJECT_NAME":"ONEWEB-0207","OBJECT_ID":"2021-031AJ","EPOCH":"2025-09-28T02:30:41.987232","MEAN_MOTION":13.14503593,"ECCENTRICITY":0.00019888,"INCLINATION":87.9067,"RA_OF_ASC_NODE":341.8809,"ARG_OF_PERICENTER":96.0353,"MEAN_ANOMALY":264.1003,"EPHEMERIS_TYPE":0,"CLASSIFICATION_TYPE":"U","NORAD_CAT_ID":48242,"ELEMENT_SET_NO":999,"REV_AT_EPOCH":21386,"BSTAR":0.00064993239,"MEAN_MOTION_DOT":2.54e-6,"MEAN_MOTION_DDOT":0},{"OBJECT_NAME":"ONEWEB-0208","OBJECT_ID":"2021-031AK","EPOCH":"2025-09-28T05:43:40.204128","MEAN_MOTION":13.14502827,"ECCENTRICITY":0.00019562,"INCLINATION":87.907,"RA_OF_ASC_NODE":341.8696,"ARG_OF_PERICENTER":98.9899,"MEAN_ANOMALY":261.1452,"EPHEMERIS_TYPE":0,"CLASSIFICATION_TYPE":"U","NORAD_CAT_ID":48243,"ELEMENT_SET_NO":999,"REV_AT_EPOCH":21389,"BSTAR":-0.0010566601,"MEAN_MOTION_DOT":-3.79e-6,"MEAN_MOTION_DDOT":0},{"OBJECT_NAME":"ONEWEB-0200","OBJECT_ID":"2021-031AL","EPOCH":"2025-09-27T17:53:28.660704","MEAN_MOTION":13.14503705,"ECCENTRICITY":0.00018905,"INCLINATION":87.9069,"RA_OF_ASC_NODE":341.9574,"ARG_OF_PERICENTER":102.3764,"MEAN_ANOMALY":257.7578,"EPHEMERIS_TYPE":0,"CLASSIFICATION_TYPE":"U","NORAD_CAT_ID":48244,"ELEMENT_SET_NO":999,"REV_AT_EPOCH":21375,"BSTAR":-0.00031912795,"MEAN_MOTION_DOT":-1.06e-6,"MEAN_MOTION_DDOT":0}]
